STARLINK-30088          
1 57462U 23107F   26068.09384293  .00006778  00000+0  26191-3 0  9996
2 57462  43.0038 339.6676 0001941 259.6478 100.4155 15.26769614145058
HAWK-11A                
1 62382U 24247F   26068.51231358  .00009457  00000+0  34106-3 0  9991
2 62382  44.9941 114.3328 0005466 327.3713  32.6832 15.28849427 67741
